OBJECT_NAME,OBJECT_ID,EPOCH,MEAN_MOTION,ECCENTRICITY,INCLINATION,RA_OF_ASC_NODE,ARG_OF_PERICENTER,MEAN_ANOMALY,EPHEMERIS_TYPE,CLASSIFICATION_TYPE,NORAD_CAT_ID,ELEMENT_SET_NO,REV_AT_EPOCH,BSTAR,MEAN_MOTION_DOT,MEAN_MOTION_DDOT
LEMUR-2-ROUNDTRIPPER,2025-009DG,2026-06-18T18:10:26.766336,15.03813669,.0005507,97.7255,252.4346,126.2997,233.8738,0,U,62711,999,7786,.50442E-3,.6878E-4,0
LEMUR-2-MYNAMEISJEFF,2025-009DH,2026-06-18T18:08:08.752704,15.03818635,.0003749,97.7300,252.8149,147.3297,212.8161,0,U,62712,999,7786,.47339E-3,.645E-4,0
LEMUR-2-LEIA-PHILIP,2025-052AN,2026-06-18T14:33:41.041728,14.97321945,.0002699,97.6836,61.5341,205.2686,154.8404,0,U,63246,999,6888,.54694E-4,.577E-5,0
LEMUR-2-LIA-MARTIN,2025-052AQ,2026-06-18T14:40:18.331392,14.97811281,.0002967,97.6887,62.0158,155.0061,205.1306,0,U,63248,999,6889,.2431E-3,.2798E-4,0
LEMUR-2-DELOITTE-1,2025-052BB,2026-06-18T06:05:30.981120,14.97612095,.0003455,97.6922,61.9920,94.8418,265.3198,0,U,63259,999,6885,.32332E-3,.3722E-4,0
LEMUR-2-EMERSONROSE,2025-052BD,2026-06-18T16:41:04.973280,14.99087513,.0001725,97.6880,62.9884,68.9535,291.1872,0,U,63261,999,6896,.23985E-3,.2854E-4,0
LEMUR-2-MARACHE-FRAN,2025-052BE,2026-06-18T14:28:01.051680,15.00113345,.0005223,97.6937,63.2169,18.0876,342.0533,0,U,63262,999,6897,.33013E-3,.4059E-4,0
LEMUR-2-THEFALCONER,2025-052BG,2026-06-18T16:21:04.642272,14.97395786,.000247,97.6855,62.0324,28.4453,331.6904,0,U,63264,999,6891,.21384E-3,.2428E-4,0
LEMUR-2-UNTITLED-SC,2025-061A,2026-06-18T08:16:37.715808,15.13483631,.0016932,97.5636,144.6980,259.9891,99.9430,0,U,63351,999,6776,.1924E-3,.3387E-4,0
LEMUR-2-ESPERANZA,2025-061B,2026-06-18T15:39:35.692416,15.13578503,.0016537,97.5645,145.0973,258.2498,101.6878,0,U,63352,999,6781,.1539E-3,.2702E-4,0
LEMUR-2-KREMPEL-BRO2,2025-061C,2026-06-18T17:53:00.426912,15.14015502,.0017552,97.5692,145.7247,249.6298,110.3048,0,U,63353,999,6784,.1855E-3,.3313E-4,0
LEMUR-2-THERMORAPTOR,2025-061D,2026-06-18T15:51:53.933760,15.14095252,.001726,97.5696,145.7171,248.7005,111.2383,0,U,63354,999,6783,.17165E-3,.3067E-4,0
LEMUR-2-NEUROSPICY,2025-061E,2026-06-18T08:50:18.619584,15.14208053,.0015043,97.5625,145.0511,253.4986,106.4593,0,U,63355,999,6779,.16326E-3,.2921E-4,0
LEMUR-2-TILLINFINITY,2025-061F,2026-06-18T17:36:02.822400,15.14796724,.0016451,97.5609,145.7053,238.9009,121.0609,0,U,63356,999,6787,.18074E-3,.3298E-4,0
LEMUR-2-KREMPEL-BRO1,2025-061G,2026-06-18T09:02:27.314592,15.14599257,.0017049,97.5612,145.2664,242.0323,117.9183,0,U,63357,999,6781,.15392E-3,.2783E-4,0
LEMUR-2-LANGER2SPACE,2025-061H,2026-06-18T17:36:44.125056,15.14298691,.0014987,97.5615,145.4349,250.2947,109.6668,0,U,63358,999,6785,.17916E-3,.322E-4,0
LEMUR-2-BALTO,2025-052BH,2026-06-18T10:53:52.996704,15.00098869,.0006901,97.6897,63.0474,54.5649,305.6218,0,U,63395,999,6895,.39494E-3,.4868E-4,0
LEMUR-2-KRISH,2025-135AK,2026-06-18T17:54:37.863648,14.96222499,.0001717,97.7756,284.6116,97.9640,262.1776,0,U,64561,999,5415,.36923E-3,.4107E-4,0
LEMUR-2-HUBBLE-4,2025-135AP,2026-06-18T13:02:49.212096,14.93201627,.0000916,97.7701,283.4330,296.8143,63.2982,0,U,64565,999,5407,.12723E-3,.1273E-4,0
LEMUR-2-SEJONG-2,2025-135BL,2026-06-18T20:13:20.135424,14.96705954,.0003684,97.7687,284.8520,331.7057,28.3964,0,U,64586,999,5419,.29267E-3,.3284E-4,0
LEMUR-2-HUBBLE-5,2025-135BT,2026-06-18T18:21:11.630880,14.94139156,.0004959,97.7720,284.2880,348.1864,11.9239,0,U,64840,999,5414,.82883E-4,.829E-5,0
LEMUR-2-KARENDARRELL,2025-135BU,2026-06-18T18:51:29.039328,15.00129024,.0009801,97.7684,285.9908,195.8683,164.2235,0,U,64841,999,5425,.5009E-3,.6197E-4,0
LEMUR-2-LUCILLE-ROSE,2025-135BV,2026-06-18T07:01:12.717120,15.00164541,.0011255,97.7766,285.5191,278.7265,81.2683,0,U,65403,999,4880,.3891E-3,.4805E-4,0
LEMUR-2-AFFIE-WAUWIE,2025-248C,2026-06-18T21:17:40.204896,15.27193315,.0007202,45.3929,105.7764,96.8263,263.3445,0,U,66295,999,3485,.5115E-3,.13619E-3,0
LEMUR-2-DEANANDMAEVE,2025-276N,2026-06-18T13:34:35.501952,15.19746440,.0005565,97.4208,243.0185,9.8308,350.3034,0,U,66678,999,3062,.24502E-3,.5173E-4,0
LEMUR-2-STAS-GORBUK,2025-276W,2026-06-18T17:05:36.530304,15.19394322,.0004968,97.4243,243.2174,10.2941,349.8395,0,U,66686,999,3064,.20403E-3,.4251E-4,0
LEMUR-2-TEODOR,2025-276DG,2026-06-18T19:49:18.823584,15.21064405,.0002205,97.4148,243.5676,115.2521,244.8943,0,U,66768,999,3069,.21109E-3,.4621E-4,0
LEMUR-2-LAILA,2025-276DQ,2026-06-18T17:36:41.465664,15.21285978,.0002302,97.4171,243.5986,134.0918,226.0508,0,U,66776,999,3068,.21129E-3,.4655E-4,0
LEMUR-2-CELIJO-SB-PK,2025-276DW,2026-06-18T18:30:14.956416,14.99992221,.0008683,97.5245,240.4969,128.7901,231.4100,0,U,66781,999,2286,.38602E-3,.4746E-4,0
LEMUR-2-FINNIAN,2025-276DX,2026-06-18T17:56:29.632416,15.00394870,.000889,97.5289,240.6894,84.7921,275.4317,0,U,66782,999,2023,.44527E-3,.5543E-4,0
